OBJECT_NAME,OBJECT_ID,EPOCH,MEAN_MOTION,ECCENTRICITY,INCLINATION,RA_OF_ASC_NODE,ARG_OF_PERICENTER,MEAN_ANOMALY,EPHEMERIS_TYPE,CLASSIFICATION_TYPE,NORAD_CAT_ID,ELEMENT_SET_NO,REV_AT_EPOCH,BSTAR,MEAN_MOTION_DOT,MEAN_MOTION_DDOT
TIANMU-1 21,2023-208C,2026-06-27T05:17:31.067808,15.35248645,.0005657,97.4512,297.9423,279.5013,80.5591,0,U,58662,999,13910,.30665E-3,.1042E-3,0
TIANMU-1 22,2023-208D,2026-06-27T03:17:36.233088,15.31191160,.0002389,97.4507,294.4162,319.4088,40.6975,0,U,58663,999,13885,.27429E-3,.8187E-4,0
TIANMU-1 15,2024-004A,2026-06-27T04:34:01.267680,15.26809513,.0005681,97.4664,4.3823,310.4258,49.6484,0,U,58700,999,13730,.24184E-3,.63E-4,0
TIANMU-1 16,2024-004B,2026-06-27T04:20:23.676576,15.26846032,.0004851,97.4612,3.5996,329.9774,30.1185,0,U,58701,999,13730,.22451E-3,.5849E-4,0
TIANMU-1 17,2024-004C,2026-06-27T03:59:27.489696,15.26844593,.0004535,97.4640,4.0737,337.7463,22.3578,0,U,58702,999,13729,.21827E-3,.5684E-4,0
TIANMU-1 18,2024-004D,2026-06-27T08:06:44.717184,15.26766131,.000359,97.4657,4.5062,314.5225,45.5720,0,U,58703,999,13732,.21861E-3,.5678E-4,0
INSAT-3DS,2024-033A,2026-06-27T00:55:12.586368,1.00270638,.0001473,0.0617,100.5111,345.6436,284.8739,0,U,58990,999,4716,0,-.144E-5,0
METEOR-M2 4,2024-039A,2026-06-27T04:07:40.760256,14.22430465,.0007817,98.7014,137.3446,134.1903,225.9919,0,U,59051,999,12068,.17661E-4,-.4E-7,0
GOES 19,2024-119A,2026-06-27T04:33:38.623968,1.00271191,.0000557,0.0076,91.7909,49.8217,126.9075,0,U,60133,999,706,0,-.237E-5,0
MTG-S1,2025-143A,2026-06-27T03:56:56.471136,1.00271848,.000276,0.5954,341.0847,268.8982,84.0661,0,U,64723,999,351,0,.4E-7,0
METOP-SGA1,2025-172A,2026-06-27T03:31:07.459968,14.19816576,.0008091,98.6642,237.6630,24.8481,335.3084,0,U,65159,999,4520,.39351E-4,.4E-6,0
FENGYUN 3H,2025-219A,2026-06-27T02:49:31.069344,14.19922045,.0001512,98.6769,118.6938,70.3996,289.7344,0,U,65815,999,3879,.36436E-4,.34E-6,0
