TIANMU-1 21             
1 58662U 23208C   26178.22049847  .00010420  00000+0  30665-3 0  9991
2 58662  97.4512 297.9423 0005657 279.5013  80.5591 15.35248645139108
TIANMU-1 22             
1 58663U 23208D   26178.13722492  .00008187  00000+0  27429-3 0  9997
2 58663  97.4507 294.4162 0002389 319.4088  40.6975 15.31191160138859
TIANMU-1 15             
1 58700U 24004A   26178.19029245  .00006300  00000+0  24184-3 0  9996
2 58700  97.4664   4.3823 0005681 310.4258  49.6484 15.26809513137300
TIANMU-1 16             
1 58701U 24004B   26178.18082959  .00005849  00000+0  22451-3 0  9999
2 58701  97.4612   3.5996 0004851 329.9774  30.1185 15.26846032137302
TIANMU-1 17             
1 58702U 24004C   26178.16629039  .00005684  00000+0  21827-3 0  9997
2 58702  97.4640   4.0737 0004535 337.7463  22.3578 15.26844593137291
TIANMU-1 18             
1 58703U 24004D   26178.33801756  .00005678  00000+0  21861-3 0  9996
2 58703  97.4657   4.5062 0003590 314.5225  45.5720 15.26766131137326
INSAT-3DS               
1 58990U 24033A   26178.03834012 -.00000144  00000+0  00000+0 0  9996
2 58990   0.0617 100.5111 0001473 345.6436 284.8739  1.00270638 47168
METEOR-M2 4             
1 59051U 24039A   26178.17199954 -.00000004  00000+0  17661-4 0  9996
2 59051  98.7014 137.3446 0007817 134.1903 225.9919 14.22430465120688
GOES 19                 
1 60133U 24119A   26178.19003037 -.00000237  00000+0  00000+0 0  9998
2 60133   0.0076  91.7909 0000557  49.8217 126.9075  1.00271191  7066
MTG-S1                  
1 64723U 25143A   26178.16454249  .00000004  00000+0  00000+0 0  9998
2 64723   0.5954 341.0847 0002760 268.8982  84.0661  1.00271848  3517
METOP-SGA1              
1 65159U 25172A   26178.14661412  .00000040  00000+0  39351-4 0  9990
2 65159  98.6642 237.6630 0008091  24.8481 335.3084 14.19816576 45200
FENGYUN 3H              
1 65815U 25219A   26178.11772071  .00000034  00000+0  36436-4 0  9996
2 65815  98.6769 118.6938 0001512  70.3996 289.7344 14.19922045 38792
